[{"OBJECT_NAME":"GAOFEN-5 01A","OBJECT_ID":"2022-165A","EPOCH":"2026-03-09T23:48:04.634784","MEAN_MOTION":14.5780943,"ECCENTRICITY":6.342e-5,"INCLINATION":98.2281,"RA_OF_ASC_NODE":7.3832,"ARG_OF_PERICENTER":37.2701,"MEAN_ANOMALY":322.8541,"EPHEMERIS_TYPE":0,"CLASSIFICATION_TYPE":"U","NORAD_CAT_ID":54640,"ELEMENT_SET_NO":999,"REV_AT_EPOCH":17296,"BSTAR":0.00017296307,"MEAN_MOTION_DOT":7.46e-6,"MEAN_MOTION_DDOT":0},{"OBJECT_NAME":"COSMOS 2251 DEB","OBJECT_ID":"1993-036BPJ","EPOCH":"2026-03-09T22:48:52.244352","MEAN_MOTION":14.58736445,"ECCENTRICITY":0.0057346,"INCLINATION":74.0071,"RA_OF_ASC_NODE":250.6639,"ARG_OF_PERICENTER":9.9393,"MEAN_ANOMALY":142.118,"EPHEMERIS_TYPE":0,"CLASSIFICATION_TYPE":"U","NORAD_CAT_ID":37959,"ELEMENT_SET_NO":999,"REV_AT_EPOCH":81398,"BSTAR":0.00065509673,"MEAN_MOTION_DOT":3.099e-5,"MEAN_MOTION_DDOT":0}]
